{
    "links": {
        "self": "http://www.neowsapp.com/rest/v1/neo/3092404?api_key=iIulBulltgU6a56xZRHN4H3l9WmuAYTsLGpBGhQ2"
    },
    "id": "3092404",
    "neo_reference_id": "3092404",
    "name": "(2001 UQ16)",
    "designation": "2001 UQ16",
    "nasa_jpl_url": "http://ssd.jpl.nasa.gov/sbdb.cgi?sstr=3092404",
    "absolute_magnitude_h": 21.3,
    "estimated_diameter": {
        "kilometers": {
            "estimated_diameter_min": 0.1460679643,
            "estimated_diameter_max": 0.3266178974
        },
        "meters": {
            "estimated_diameter_min": 146.0679642714,
            "estimated_diameter_max": 326.6178974458
        },
        "miles": {
            "estimated_diameter_min": 0.090762397,
            "estimated_diameter_max": 0.2029508896
        },
        "feet": {
            "estimated_diameter_min": 479.2256199,
            "estimated_diameter_max": 1071.581062656
        }
    },
    "is_potentially_hazardous_asteroid": false,
    "close_approach_data": [
        {
            "close_approach_date": "2001-10-24",
            "close_approach_date_full": "2001-Oct-24 06:16",
            "epoch_date_close_approach": 1003904160000,
            "relative_velocity": {
                "kilometers_per_second": "17.2190240415",
                "kilometers_per_hour": "61988.4865495735",
                "miles_per_hour": "38517.2348785392"
            },
            "miss_distance": {
                "astronomical": "0.2356371691",
                "lunar": "91.6628587799",
                "kilometers": "35250818.590189817",
                "miles": "21903842.9772487946"
            },
            "orbiting_body": "Earth"
        }
    ],
    "orbital_data": {
        "orbit_id": "9",
        "orbit_determination_date": "2017-04-06 09:15:56",
        "first_observation_date": "2001-10-15",
        "last_observation_date": "2001-10-26",
        "data_arc_in_days": 11,
        "observations_used": 24,
        "orbit_uncertainty": "9",
        "minimum_orbit_intersection": ".23501",
        "jupiter_tisserand_invariant": "2.947",
        "epoch_osculation": "2452204.5",
        "eccentricity": ".5506528671975621",
        "semi_major_axis": "2.72484820834375",
        "inclination": "30.80574155972669",
        "ascending_node_longitude": "29.67722666154547",
        "orbital_period": "1642.902907826771",
        "perihelion_distance": "1.224402729741124",
        "perihelion_argument": "10.02362631174189",
        "aphelion_distance": "4.225293686946376",
        "perihelion_time": "2452215.002500902327",
        "mean_anomaly": "357.6986465196296",
        "mean_motion": ".2191243306497079",
        "equinox": "J2000",
        "orbit_class": {
            "orbit_class_type": "AMO",
            "orbit_class_description": "Near-Earth asteroid orbits similar to that of 1221 Amor",
            "orbit_class_range": "1.017 AU < q (perihelion) < 1.3 AU"
        }
    },
    "is_sentry_object": false
}